{
    "OEM": [
        {
            "CCSDS_OEM_VERS": 13911.66,
            "CREATION_DATE": "2062-08-30T02:30:12.699Z",
            "ORIGINATOR": "Heaney Inc",
            "file_id": "QmTVBynHdn4292GGQVAzvtp5MUpgawf7T7juzpGxY6boRb",
            "id": 113111363416299220
        }
    ],
    "ephemerisDataBlock": [
        {
            "COMMENT": "Fwd@.+G[.X",
            "OBJECT_NAME": "nPWig8.?%C",
            "OBJECT_ID": "'DJ`$UCAX8",
            "CENTER_NAME": "Jrgc9|SXJ,",
            "REF_FRAME": 5,
            "REF_FRAME_EPOCH": "1999-06-10T14:25:40.276Z",
            "TIME_SYSTEM": 0,
            "START_TIME": "2020-08-06T17:05:43.361Z",
            "USEABLE_START_TIME": "2034-09-02T00:49:51.260Z",
            "USEABLE_STOP_TIME": "2069-09-15T13:48:39.143Z",
            "STOP_TIME": "1991-08-03T02:54:18.523Z",
            "INTERPOLATION": "Gr$1)jhT.w",
            "INTERPOLATION_DEGREE": 2769841037,
            "OEM_id": 113111363416299220,
            "id": 113111369623500110
        },
        {
            "COMMENT": "$fnt89]'28",
            "OBJECT_NAME": "rl!b*kEuOt",
            "OBJECT_ID": "!&R&KB`/\\.",
            "CENTER_NAME": "t2@ZcM%IpO",
            "REF_FRAME": 6,
            "REF_FRAME_EPOCH": "2089-01-10T23:10:05.008Z",
            "TIME_SYSTEM": 1,
            "START_TIME": "2006-12-08T09:40:13.574Z",
            "USEABLE_START_TIME": "2047-02-14T20:49:11.663Z",
            "USEABLE_STOP_TIME": "2029-05-06T02:18:44.485Z",
            "STOP_TIME": "2042-04-09T05:24:09.064Z",
            "INTERPOLATION": "<4>7)Qvt$3",
            "INTERPOLATION_DEGREE": 48012000,
            "OEM_id": 113111363416299220,
            "id": 113111388517701630
        }
    ],
    "ephemerisDataLine": [
        {
            "EPOCH": "2055-06-20T16:46:02.056Z",
            "X": 17174.19,
            "Y": 20392.37,
            "Z": 29510.85,
            "X_DOT": 70338.31,
            "Y_DOT": 67729.77,
            "Z_DOT": 15009.84,
            "X_DDOT": 32987.2,
            "Y_DDOT": 81841.02,
            "Z_DDOT": 49670.45,
            "ephemerisDataBlock_id": 113111369623500110,
            "id": 113111372109001870
        },
        {
            "EPOCH": "2049-06-11T17:09:44.234Z",
            "X": 40950.78,
            "Y": 89959.61,
            "Z": 11911.71,
            "X_DOT": 77970.7,
            "Y_DOT": 15645.29,
            "Z_DOT": 4494.63,
            "X_DDOT": 34011.99,
            "Y_DDOT": 80968.61,
            "Z_DDOT": 71400.32,
            "ephemerisDataBlock_id": 113111369623500110,
            "id": 113111372421601400
        },
        {
            "EPOCH": "2079-03-25T05:04:36.239Z",
            "X": 29901,
            "Y": 67388.7,
            "Z": 63783.96,
            "X_DOT": 87970.46,
            "Y_DOT": 6349.54,
            "Z_DOT": 9650.29,
            "X_DDOT": 29531.12,
            "Y_DDOT": 25982.5,
            "Z_DDOT": 76065.28,
            "ephemerisDataBlock_id": 113111388517701630,
            "id": 113111389940300580
        },
        {
            "EPOCH": "2014-07-05T02:25:22.823Z",
            "X": 44183.02,
            "Y": 26724.94,
            "Z": 10871.98,
            "X_DOT": 41864.44,
            "Y_DOT": 50885.72,
            "Z_DOT": 43806.63,
            "X_DDOT": 1618.12,
            "Y_DDOT": 79578.61,
            "Z_DDOT": 33572.05,
            "ephemerisDataBlock_id": 113111388517701630,
            "id": 113111390074801440
        }
    ],
    "covarianceMatrixLine": [
        {
            "EPOCH": "2030-10-23T08:18:41.436Z",
            "COV_REF_FRAME": 1,
            "CX_X": 65667.8,
            "CY_X": 72330.63,
            "CY_Y": 64816.13,
            "CZ_X": 5647.36,
            "CZ_Y": 26770.84,
            "CZ_Z": 13333.39,
            "CX_DOT_X": 38011.2,
            "CX_DOT_Y": 27036.21,
            "CX_DOT_Z": 35933.32,
            "CX_DOT_X_DOT": 54683.35,
            "CY_DOT_X": 29709.43,
            "CY_DOT_Y": 77091.26,
            "CY_DOT_Z": 65174.16,
            "CY_DOT_X_DOT": 99767.32,
            "CY_DOT_Y_DOT": 14407.72,
            "CZ_DOT_X": 28340.79,
            "CZ_DOT_Y": 98673.87,
            "CZ_DOT_Z": 33392.06,
            "CZ_DOT_X_DOT": 17794.86,
            "CZ_DOT_Y_DOT": 90234.27,
            "CZ_DOT_Z_DOT": 51866.8,
            "ephemerisDataBlock_id": 113111369623500110,
            "id": 113111387344500420
        },
        {
            "EPOCH": "2005-02-17T19:00:55.423Z",
            "COV_REF_FRAME": 2,
            "CX_X": 40986.3,
            "CY_X": 50316.58,
            "CY_Y": 60857.06,
            "CZ_X": 42784.66,
            "CZ_Y": 29334.85,
            "CZ_Z": 85516.9,
            "CX_DOT_X": 50516.18,
            "CX_DOT_Y": 85424.22,
            "CX_DOT_Z": 87409.29,
            "CX_DOT_X_DOT": 26970.43,
            "CY_DOT_X": 12422.09,
            "CY_DOT_Y": 84400.47,
            "CY_DOT_Z": 2734.61,
            "CY_DOT_X_DOT": 78349.97,
            "CY_DOT_Y_DOT": 8038.62,
            "CZ_DOT_X": 59616.73,
            "CZ_DOT_Y": 41016.23,
            "CZ_DOT_Z": 46114.59,
            "CZ_DOT_X_DOT": 44283.2,
            "CZ_DOT_Y_DOT": 23682.45,
            "CZ_DOT_Z_DOT": 75978.97,
            "ephemerisDataBlock_id": 113111369623500110,
            "id": 113111387804600590
        },
        {
            "EPOCH": "2021-04-13T07:20:16.998Z",
            "COV_REF_FRAME": 0,
            "CX_X": 33421.42,
            "CY_X": 12556.08,
            "CY_Y": 11377.03,
            "CZ_X": 41887.46,
            "CZ_Y": 91754.81,
            "CZ_Z": 57782.68,
            "CX_DOT_X": 6.8,
            "CX_DOT_Y": 43168.95,
            "CX_DOT_Z": 30295.52,
            "CX_DOT_X_DOT": 30196.98,
            "CY_DOT_X": 12499.68,
            "CY_DOT_Y": 86386.96,
            "CY_DOT_Z": 67314.28,
            "CY_DOT_X_DOT": 35704.51,
            "CY_DOT_Y_DOT": 53186.43,
            "CZ_DOT_X": 89805.86,
            "CZ_DOT_Y": 31403.24,
            "CZ_DOT_Z": 30985.1,
            "CZ_DOT_X_DOT": 74124.07,
            "CZ_DOT_Y_DOT": 94933.56,
            "CZ_DOT_Z_DOT": 52305.14,
            "ephemerisDataBlock_id": 113111388517701630,
            "id": 113111392409500480
        },
        {
            "EPOCH": "2062-10-24T06:00:58.189Z",
            "COV_REF_FRAME": 1,
            "CX_X": 97109.64,
            "CY_X": 88787.53,
            "CY_Y": 53841.36,
            "CZ_X": 55671.64,
            "CZ_Y": 20385.57,
            "CZ_Z": 96758.62,
            "CX_DOT_X": 71913.2,
            "CX_DOT_Y": 52610.9,
            "CX_DOT_Z": 72115.7,
            "CX_DOT_X_DOT": 3874.53,
            "CY_DOT_X": 79248.1,
            "CY_DOT_Y": 72331.86,
            "CY_DOT_Z": 30089.74,
            "CY_DOT_X_DOT": 22449.2,
            "CY_DOT_Y_DOT": 80815.37,
            "CZ_DOT_X": 47215.2,
            "CZ_DOT_Y": 85856.29,
            "CZ_DOT_Z": 8869.33,
            "CZ_DOT_X_DOT": 42097.18,
            "CZ_DOT_Y_DOT": 64497.74,
            "CZ_DOT_Z_DOT": 93191.17,
            "ephemerisDataBlock_id": 113111388517701630,
            "id": 113111392530199890
        }
    ]
}